GLOBALSTAR M024         
1 25883U 99043A   25162.89929796 -.00000066  00000+0 -27104-4 0  9997
2 25883  52.0050  32.5531 0002126  82.7359  39.7463 11.10168862114275
GLOBALSTAR M027         
1 25884U 99043B   25162.88424297 -.00000124  00000+0 -22987-2 0  9990
2 25884  52.0198 110.4179 0021823 343.5610  16.4473 11.04372143140652
GLOBALSTAR M054         
1 25885U 99043C   25162.71291847  .00000081  00000+0  38705-2 0  9991
2 25885  52.0127 239.0227 0006225 166.4918   2.4737 11.39222607118424
GLOBALSTAR M053         
1 25886U 99043D   25161.32400626 -.00000043  00000+0  75204-3 0  9990
2 25886  51.9944 189.0619 0002816  70.1930 302.7558 11.27665759118676
GLOBALSTAR M058         
1 25907U 99049A   25162.61253688 -.00000098  00000+0 -17629-3 0  9995
2 25907  51.9921 124.0595 0001885 265.0240  95.0380 11.93200404540872
GLOBALSTAR M050         
1 25908U 99049B   25162.90609920 -.00000143  00000+0 -61521-3 0  9993
2 25908  51.9965 131.3461 0009388  19.9910 356.1221 12.07455240147559
GLOBALSTAR M033         
1 25909U 99049C   25162.86211606 -.00000095  00000+0 -35714-4 0  9991
2 25909  51.9935   3.6669 0012826 251.1379 108.8078 12.20292980535095
GLOBALSTAR M055         
1 25910U 99049D   25162.89106927 -.00000077  00000+0  14729-3 0  9996
2 25910  52.0040  14.5917 0007714 116.7807 243.3834 12.29428522167633
